0 SL-8 R/B
1 18130U 87054B   13283.10960656  .00000199  00000-0  18846-3 0  8614
2 18130 082.9213 111.6485 0017459 165.2020 194.9651 13.76377598320688
0 SL-8 R/B
1 18130U 87054B   13284.12734534  .00000197  00000-0  18552-3 0  8624
2 18130 082.9212 110.8907 0017512 162.4677 197.7088 13.76377880320829
0 SL-8 R/B
1 18130U 87054B   13285.65395312  .00000161  00000-0  14944-3 0  8633
2 18130 082.9212 109.7537 0017608 158.4170 201.7733 13.76378332321034
0 SL-8 R/B
1 18130U 87054B   13286.67169119  .00000167  00000-0  15556-3 0  8647
2 18130 082.9212 108.9958 0017658 155.7218 204.4775 13.76378784321172
0 SL-8 R/B
1 18130U 87054B   13287.83481999  .00000181  00000-0  16964-3 0  8650
2 18130 082.9213 108.1296 0017716 152.6290 207.5804 13.76379447321333
0 SL-8 R/B
1 18130U 87054B   13288.85255720  .00000187  00000-0  17537-3 0  8668
2 18130 082.9214 107.3716 0017776 149.9544 210.2636 13.76379845321470
0 SL-8 R/B
1 18130U 87054B   13290.08838072  .00000153  00000-0  14101-3 0  8671
2 18130 082.9216 106.4513 0017839 146.6865 213.5419 13.76380238321649
0 SL-8 R/B
1 18130U 87054B   13291.10611715  .00000155  00000-0  14284-3 0  8683
2 18130 082.9218 105.6934 0017892 144.0172 216.2194 13.76380468321781
0 SL-8 R/B
1 18130U 87054B   13292.48733053  .00000176  00000-0  16404-3 0  8695
2 18130 082.9220 104.6649 0017908 140.4325 219.8143 13.76380747321978
0 SL-8 R/B
1 18130U 87054B   13293.50506627  .00000201  00000-0  18966-3 0  8700
2 18130 082.9221 103.9071 0017914 137.8111 222.4428 13.76381086322110
0 SL-8 R/B
1 18130U 87054B   13294.81358342  .00000212  00000-0  20158-3 0  8713
2 18130 082.9221 102.9328 0017991 134.3344 225.9291 13.76381304322297
0 SL-8 R/B
1 18130U 87054B   13296.19479559  .00000207  00000-0  19660-3 0  8721
2 18130 082.9221 101.9044 0017980 130.7858 229.4862 13.76381836322483
